{
  "norad_id": 48065,
  "name": "ONEWEB-0166",
  "history": [
    {
      "epoch": "2026-03-28T18:42:34.179264Z",
      "apogee_km": 1210.9785459996847,
      "perigee_km": 1208.5648322456746,
      "latitude_deg": 1.397539749948159e-05,
      "longitude_deg": -130.63572059543185,
      "height_km": 1212.3444411501846,
      "semi_major_axis_km": 7587.90868912268,
      "eccentricity": 0.00015905,
      "inclination_deg": 87.902,
      "raan_deg": 336.2018,
      "arg_perigee_deg": 74.7738,
      "mean_anomaly_deg": 285.3567,
      "mean_motion_rev_day": 13.13468367
    },
    {
      "epoch": "2026-03-29T03:51:03.002688Z",
      "apogee_km": 1210.96233993246,
      "perigee_km": 1208.584288839932,
      "latitude_deg": -6.058206840380224e-06,
      "longitude_deg": 91.79305958277334,
      "height_km": 1212.3459182315119,
      "semi_major_axis_km": 7587.910314386196,
      "eccentricity": 0.0001567,
      "inclination_deg": 87.9019,
      "raan_deg": 336.1261,
      "arg_perigee_deg": 74.5302,
      "mean_anomaly_deg": 285.6,
      "mean_motion_rev_day": 13.13467945
    },
    {
      "epoch": "2026-03-30T03:37:05.856672Z",
      "apogee_km": 1210.960656594346,
      "perigee_km": 1208.5810886854852,
      "latitude_deg": -6.655677853693704e-05,
      "longitude_deg": 94.1085715032454,
      "height_km": 1212.3551982259166,
      "semi_major_axis_km": 7587.907872639915,
      "eccentricity": 0.0001568,
      "inclination_deg": 87.9019,
      "raan_deg": 335.9296,
      "arg_perigee_deg": 75.125,
      "mean_anomaly_deg": 285.0052,
      "mean_motion_rev_day": 13.13468579
    },
    {
      "epoch": "2026-03-30T09:06:11.088000Z",
      "apogee_km": 1210.9513267870234,
      "perigee_km": 1208.5848109541448,
      "latitude_deg": 1.5215118145620217e-05,
      "longitude_deg": 11.566125371228301,
      "height_km": 1212.3575174832097,
      "semi_major_axis_km": 7587.905068870584,
      "eccentricity": 0.00015594,
      "inclination_deg": 87.9018,
      "raan_deg": 335.8842,
      "arg_perigee_deg": 75.2976,
      "mean_anomaly_deg": 284.8326,
      "mean_motion_rev_day": 13.13469307
    },
    {
      "epoch": "2026-03-30T21:54:03.492288Z",
      "apogee_km": 1210.949648369905,
      "perigee_km": 1208.5928440686293,
      "latitude_deg": 6.136778955783807e-05,
      "longitude_deg": 178.9663858003174,
      "height_km": 1212.3682801064126,
      "semi_major_axis_km": 7587.908246219266,
      "eccentricity": 0.0001553,
      "inclination_deg": 87.9018,
      "raan_deg": 335.7784,
      "arg_perigee_deg": 75.6167,
      "mean_anomaly_deg": 284.5135,
      "mean_motion_rev_day": 13.13468482
    },
    {
      "epoch": "2026-03-31T21:40:06.370464Z",
      "apogee_km": 1210.9608415282164,
      "perigee_km": 1208.5827909052132,
      "latitude_deg": 2.561906048086958e-05,
      "longitude_deg": -178.71820168535808,
      "height_km": 1212.3875924156093,
      "semi_major_axis_km": 7587.9088162167145,
      "eccentricity": 0.0001567,
      "inclination_deg": 87.9018,
      "raan_deg": 335.5819,
      "arg_perigee_deg": 76.6792,
      "mean_anomaly_deg": 283.4512,
      "mean_motion_rev_day": 13.13468334
    },
    {
      "epoch": "2026-04-01T10:27:58.587264Z",
      "apogee_km": 1210.9627209462888,
      "perigee_km": 1208.5725309891077,
      "latitude_deg": 3.23671288602661e-05,
      "longitude_deg": -11.317359295859342,
      "height_km": 1212.3831214119027,
      "semi_major_axis_km": 7587.904625967698,
      "eccentricity": 0.0001575,
      "inclination_deg": 87.9016,
      "raan_deg": 335.4759,
      "arg_perigee_deg": 76.735,
      "mean_anomaly_deg": 283.3955,
      "mean_motion_rev_day": 13.13469422
    },
    {
      "epoch": "2026-04-02T15:43:06.590496Z",
      "apogee_km": 1210.952318599414,
      "perigee_km": 1208.5835264407015,
      "latitude_deg": -1.4582464338888503e-05,
      "longitude_deg": -91.54395277044145,
      "height_km": 1212.3869987604205,
      "semi_major_axis_km": 7587.904922520058,
      "eccentricity": 0.00015609,
      "inclination_deg": 87.9014,
      "raan_deg": 335.234,
      "arg_perigee_deg": 76.7895,
      "mean_anomaly_deg": 283.3408,
      "mean_motion_rev_day": 13.13469345
    },
    {
      "epoch": "2026-04-02T23:01:53.531904Z",
      "apogee_km": 1210.9477831310796,
      "perigee_km": 1208.585820435661,
      "latitude_deg": 1.6994488208152538e-05,
      "longitude_deg": 158.39952354236604,
      "height_km": 1212.3919669606555,
      "semi_major_axis_km": 7587.90380178337,
      "eccentricity": 0.00015564,
      "inclination_deg": 87.9012,
      "raan_deg": 335.1734,
      "arg_perigee_deg": 77.0539,
      "mean_anomaly_deg": 283.0764,
      "mean_motion_rev_day": 13.13469636
    },
    {
      "epoch": "2026-04-03T15:29:09.226752Z",
      "apogee_km": 1210.9537926095982,
      "perigee_km": 1208.5802962245043,
      "latitude_deg": -1.7060950563779866e-05,
      "longitude_deg": -89.22782945989633,
      "height_km": 1212.4053575130006,
      "semi_major_axis_km": 7587.9040444170505,
      "eccentricity": 0.0001564,
      "inclination_deg": 87.9008,
      "raan_deg": 335.0372,
      "arg_perigee_deg": 77.769,
      "mean_anomaly_deg": 282.3614,
      "mean_motion_rev_day": 13.13469573
    },
    {
      "epoch": "2026-04-04T04:17:01.344192Z",
      "apogee_km": 1210.9516736751157,
      "perigee_km": 1208.5786331556556,
      "latitude_deg": -4.336103799430783e-05,
      "longitude_deg": 78.17352598739373,
      "height_km": 1212.4126275474068,
      "semi_major_axis_km": 7587.902153415385,
      "eccentricity": 0.00015637,
      "inclination_deg": 87.9007,
      "raan_deg": 334.9313,
      "arg_perigee_deg": 78.2188,
      "mean_anomaly_deg": 281.9116,
      "mean_motion_rev_day": 13.13470064
    },
    {
      "epoch": "2026-04-05T04:03:03.899232Z",
      "apogee_km": 1210.9441993464143,
      "perigee_km": 1208.5840585792612,
      "latitude_deg": 4.412280542132827e-05,
      "longitude_deg": 80.4901906300936,
      "height_km": 1212.4155481560606,
      "semi_major_axis_km": 7587.901128962837,
      "eccentricity": 0.00015552,
      "inclination_deg": 87.9006,
      "raan_deg": 334.7347,
      "arg_perigee_deg": 78.3491,
      "mean_anomaly_deg": 281.7813,
      "mean_motion_rev_day": 13.1347033
    },
    {
      "epoch": "2026-04-05T16:50:56.078016Z",
      "apogee_km": 1210.9448488275802,
      "perigee_km": 1208.5865286719172,
      "latitude_deg": 4.963975917605799e-05,
      "longitude_deg": -112.10870982086087,
      "height_km": 1212.4198488410489,
      "semi_major_axis_km": 7587.902688749748,
      "eccentricity": 0.0001554,
      "inclination_deg": 87.9007,
      "raan_deg": 334.6288,
      "arg_perigee_deg": 78.4759,
      "mean_anomaly_deg": 281.6545,
      "mean_motion_rev_day": 13.13469925
    },
    {
      "epoch": "2026-04-06T03:49:06.466368Z",
      "apogee_km": 1210.9335269953945,
      "perigee_km": 1208.595239305164,
      "latitude_deg": -7.891343941459195e-06,
      "longitude_deg": 82.8066988466275,
      "height_km": 1212.4223086210554,
      "semi_major_axis_km": 7587.901383150279,
      "eccentricity": 0.00015408,
      "inclination_deg": 87.9006,
      "raan_deg": 334.538,
      "arg_perigee_deg": 78.5626,
      "mean_anomaly_deg": 281.5676,
      "mean_motion_rev_day": 13.13470264
    },
    {
      "epoch": "2026-04-07T14:33:19.618848Z",
      "apogee_km": 1210.9285137822517,
      "perigee_km": 1208.6081323344606,
      "latitude_deg": -3.000015134367443e-06,
      "longitude_deg": -79.96240419571912,
      "height_km": 1212.4372279394313,
      "semi_major_axis_km": 7587.905323058356,
      "eccentricity": 0.0001529,
      "inclination_deg": 87.9003,
      "raan_deg": 334.2503,
      "arg_perigee_deg": 79.0253,
      "mean_anomaly_deg": 281.1048,
      "mean_motion_rev_day": 13.13469241
    },
    {
      "epoch": "2026-04-07T18:12:43.096032Z",
      "apogee_km": 1210.9347805545385,
      "perigee_km": 1208.6022583978502,
      "latitude_deg": -4.331358698042424e-06,
      "longitude_deg": -134.99019429055767,
      "height_km": 1212.4401320674688,
      "semi_major_axis_km": 7587.905519476194,
      "eccentricity": 0.0001537,
      "inclination_deg": 87.9003,
      "raan_deg": 334.2205,
      "arg_perigee_deg": 79.2193,
      "mean_anomaly_deg": 280.9109,
      "mean_motion_rev_day": 13.1346919
    },
    {
      "epoch": "2026-04-08T16:09:04.064544Z",
      "apogee_km": 1210.8548267655078,
      "perigee_km": 1208.6827128598406,
      "latitude_deg": 7.10812056709771e-05,
      "longitude_deg": -105.1602723243279,
      "height_km": 1212.460604918275,
      "semi_major_axis_km": 7587.9057698126735,
      "eccentricity": 0.00014313,
      "inclination_deg": 87.9,
      "raan_deg": 334.0388,
      "arg_perigee_deg": 79.4906,
      "mean_anomaly_deg": 280.6385,
      "mean_motion_rev_day": 13.13469125
    },
    {
      "epoch": "2026-04-09T21:24:12.212064Z",
      "apogee_km": 1210.9252090975378,
      "perigee_km": 1208.6154501064057,
      "latitude_deg": 9.318727948540459e-06,
      "longitude_deg": 174.61232605693695,
      "height_km": 1212.4641093001612,
      "semi_major_axis_km": 7587.9073296019715,
      "eccentricity": 0.0001522,
      "inclination_deg": 87.8998,
      "raan_deg": 333.7967,
      "arg_perigee_deg": 80.2289,
      "mean_anomaly_deg": 279.9012,
      "mean_motion_rev_day": 13.1346872
    },
    {
      "epoch": "2026-04-10T08:22:22.763712Z",
      "apogee_km": 1210.9237608505964,
      "perigee_km": 1208.6170370013224,
      "latitude_deg": -7.487808176782359e-05,
      "longitude_deg": 9.526951269068945,
      "height_km": 1212.4668795694693,
      "semi_major_axis_km": 7587.90739892596,
      "eccentricity": 0.000152,
      "inclination_deg": 87.8997,
      "raan_deg": 333.7058,
      "arg_perigee_deg": 80.3513,
      "mean_anomaly_deg": 279.7787,
      "mean_motion_rev_day": 13.13468702
    }
  ]
}